CCSDS_OMM_VERS = 2.0
CREATION_DATE  = 
ORIGINATOR     = 

OBJECT_NAME    = 2025-313Z
OBJECT_ID      = 2025-313Z
CENTER_NAME    = EARTH
REF_FRAME      = TEME
TIME_SYSTEM    = UTC
MEAN_ELEMENT_THEORY = SGP/SGP4

EPOCH          = 2026-01-17T05:30:40.146912
MEAN_MOTION    = 15.20032195
ECCENTRICITY   = .00158359
INCLINATION    = 97.4115
RA_OF_ASC_NODE = 94.3483
ARG_OF_PERICENTER = 165.2572
MEAN_ANOMALY   = 194.9128

EPHEMERIS_TYPE = 0
CLASSIFICATION_TYPE = U
NORAD_CAT_ID   = 67271
ELEMENT_SET_NO = 999
REV_AT_EPOCH   = 299
BSTAR          = .24270542E-3
MEAN_MOTION_DOT = .5181E-4
MEAN_MOTION_DDOT = 0

CCSDS_OMM_VERS = 2.0
CREATION_DATE  = 
ORIGINATOR     = 

OBJECT_NAME    = 2025-313AA
OBJECT_ID      = 2025-313AA
CENTER_NAME    = EARTH
REF_FRAME      = TEME
TIME_SYSTEM    = UTC
MEAN_ELEMENT_THEORY = SGP/SGP4

EPOCH          = 2026-01-17T05:26:38.291712
MEAN_MOTION    = 15.20395600
ECCENTRICITY   = .00155052
INCLINATION    = 97.4118
RA_OF_ASC_NODE = 94.3506
ARG_OF_PERICENTER = 169.7986
MEAN_ANOMALY   = 190.3567

EPHEMERIS_TYPE = 0
CLASSIFICATION_TYPE = U
NORAD_CAT_ID   = 67272
ELEMENT_SET_NO = 999
REV_AT_EPOCH   = 299
BSTAR          = .57944503E-3
MEAN_MOTION_DOT = .12607E-3
MEAN_MOTION_DDOT = 0

CCSDS_OMM_VERS = 2.0
CREATION_DATE  = 
ORIGINATOR     = 

OBJECT_NAME    = 2025-313AB
OBJECT_ID      = 2025-313AB
CENTER_NAME    = EARTH
REF_FRAME      = TEME
TIME_SYSTEM    = UTC
MEAN_ELEMENT_THEORY = SGP/SGP4

EPOCH          = 2026-01-17T05:30:30.941856
MEAN_MOTION    = 15.20012322
ECCENTRICITY   = .00147375
INCLINATION    = 97.4132
RA_OF_ASC_NODE = 94.3519
ARG_OF_PERICENTER = 173.5772
MEAN_ANOMALY   = 186.5655

EPHEMERIS_TYPE = 0
CLASSIFICATION_TYPE = U
NORAD_CAT_ID   = 67273
ELEMENT_SET_NO = 999
REV_AT_EPOCH   = 299
BSTAR          = .16147496E-3
MEAN_MOTION_DOT = .3419E-4
MEAN_MOTION_DDOT = 0

CCSDS_OMM_VERS = 2.0
CREATION_DATE  = 
ORIGINATOR     = 

OBJECT_NAME    = 2025-313AC
OBJECT_ID      = 2025-313AC
CENTER_NAME    = EARTH
REF_FRAME      = TEME
TIME_SYSTEM    = UTC
MEAN_ELEMENT_THEORY = SGP/SGP4

EPOCH          = 2026-01-17T05:28:33.360960
MEAN_MOTION    = 15.20190431
ECCENTRICITY   = .00154986
INCLINATION    = 97.4108
RA_OF_ASC_NODE = 94.3562
ARG_OF_PERICENTER = 168.7574
MEAN_ANOMALY   = 191.4010

EPHEMERIS_TYPE = 0
CLASSIFICATION_TYPE = U
NORAD_CAT_ID   = 67274
ELEMENT_SET_NO = 999
REV_AT_EPOCH   = 299
BSTAR          = .36312321E-3
MEAN_MOTION_DOT = .7823E-4
MEAN_MOTION_DDOT = 0

CCSDS_OMM_VERS = 2.0
CREATION_DATE  = 
ORIGINATOR     = 

OBJECT_NAME    = 2025-313AD
OBJECT_ID      = 2025-313AD
CENTER_NAME    = EARTH
REF_FRAME      = TEME
TIME_SYSTEM    = UTC
MEAN_ELEMENT_THEORY = SGP/SGP4

EPOCH          = 2026-01-17T05:27:32.041152
MEAN_MOTION    = 15.20251941
ECCENTRICITY   = .00146742
INCLINATION    = 97.4083
RA_OF_ASC_NODE = 94.3509
ARG_OF_PERICENTER = 171.6247
MEAN_ANOMALY   = 188.5236

EPHEMERIS_TYPE = 0
CLASSIFICATION_TYPE = U
NORAD_CAT_ID   = 67275
ELEMENT_SET_NO = 999
REV_AT_EPOCH   = 299
BSTAR          = .36259839E-3
MEAN_MOTION_DOT = .7823E-4
MEAN_MOTION_DDOT = 0

CCSDS_OMM_VERS = 2.0
CREATION_DATE  = 
ORIGINATOR     = 

OBJECT_NAME    = 2025-313AE
OBJECT_ID      = 2025-313AE
CENTER_NAME    = EARTH
REF_FRAME      = TEME
TIME_SYSTEM    = UTC
MEAN_ELEMENT_THEORY = SGP/SGP4

EPOCH          = 2026-01-17T03:52:42.290112
MEAN_MOTION    = 15.20249157
ECCENTRICITY   = .00146536
INCLINATION    = 97.4088
RA_OF_ASC_NODE = 94.2872
ARG_OF_PERICENTER = 171.7964
MEAN_ANOMALY   = 188.3514

EPHEMERIS_TYPE = 0
CLASSIFICATION_TYPE = U
NORAD_CAT_ID   = 67276
ELEMENT_SET_NO = 999
REV_AT_EPOCH   = 298
BSTAR          = .34221805E-3
MEAN_MOTION_DOT = .7378E-4
MEAN_MOTION_DDOT = 0

CCSDS_OMM_VERS = 2.0
CREATION_DATE  = 
ORIGINATOR     = 

OBJECT_NAME    = 2025-313AF
OBJECT_ID      = 2025-313AF
CENTER_NAME    = EARTH
REF_FRAME      = TEME
TIME_SYSTEM    = UTC
MEAN_ELEMENT_THEORY = SGP/SGP4

EPOCH          = 2026-01-17T05:27:52.301952
MEAN_MOTION    = 15.20214816
ECCENTRICITY   = .00146559
INCLINATION    = 97.4090
RA_OF_ASC_NODE = 94.3522
ARG_OF_PERICENTER = 171.4104
MEAN_ANOMALY   = 188.7385

EPHEMERIS_TYPE = 0
CLASSIFICATION_TYPE = U
NORAD_CAT_ID   = 67277
ELEMENT_SET_NO = 999
REV_AT_EPOCH   = 299
BSTAR          = .33494288E-3
MEAN_MOTION_DOT = .7212E-4
MEAN_MOTION_DDOT = 0

CCSDS_OMM_VERS = 2.0
CREATION_DATE  = 
ORIGINATOR     = 

OBJECT_NAME    = 2025-313AG
OBJECT_ID      = 2025-313AG
CENTER_NAME    = EARTH
REF_FRAME      = TEME
TIME_SYSTEM    = UTC
MEAN_ELEMENT_THEORY = SGP/SGP4

EPOCH          = 2026-01-17T05:27:36.175392
MEAN_MOTION    = 15.20231953
ECCENTRICITY   = .00146112
INCLINATION    = 97.4092
RA_OF_ASC_NODE = 94.3532
ARG_OF_PERICENTER = 171.3133
MEAN_ANOMALY   = 188.8358

EPHEMERIS_TYPE = 0
CLASSIFICATION_TYPE = U
NORAD_CAT_ID   = 67278
ELEMENT_SET_NO = 999
REV_AT_EPOCH   = 300
BSTAR          = .33894779E-3
MEAN_MOTION_DOT = .7303E-4
MEAN_MOTION_DDOT = 0

CCSDS_OMM_VERS = 2.0
CREATION_DATE  = 
ORIGINATOR     = 

OBJECT_NAME    = GALAPAGOS-UTE-SWSU
OBJECT_ID      = 2025-313AH
CENTER_NAME    = EARTH
REF_FRAME      = TEME
TIME_SYSTEM    = UTC
MEAN_ELEMENT_THEORY = SGP/SGP4

EPOCH          = 2026-01-17T05:26:34.409760
MEAN_MOTION    = 15.20311091
ECCENTRICITY   = .00151694
INCLINATION    = 97.4104
RA_OF_ASC_NODE = 94.3568
ARG_OF_PERICENTER = 168.3834
MEAN_ANOMALY   = 191.7754

EPHEMERIS_TYPE = 0
CLASSIFICATION_TYPE = U
NORAD_CAT_ID   = 67279
ELEMENT_SET_NO = 999
REV_AT_EPOCH   = 299
BSTAR          = .38697658E-3
MEAN_MOTION_DOT = .837E-4
MEAN_MOTION_DDOT = 0

CCSDS_OMM_VERS = 2.0
CREATION_DATE  = 
ORIGINATOR     = 

OBJECT_NAME    = 2025-313AJ
OBJECT_ID      = 2025-313AJ
CENTER_NAME    = EARTH
REF_FRAME      = TEME
TIME_SYSTEM    = UTC
MEAN_ELEMENT_THEORY = SGP/SGP4

EPOCH          = 2026-01-17T05:20:21.954912
MEAN_MOTION    = 15.20598298
ECCENTRICITY   = .00141072
INCLINATION    = 97.4173
RA_OF_ASC_NODE = 94.3680
ARG_OF_PERICENTER = 164.9876
MEAN_ANOMALY   = 195.1781

EPHEMERIS_TYPE = 0
CLASSIFICATION_TYPE = U
NORAD_CAT_ID   = 67280
ELEMENT_SET_NO = 999
REV_AT_EPOCH   = 299
BSTAR          = .27898833E-3
MEAN_MOTION_DOT = .6062E-4
MEAN_MOTION_DDOT = 0

CCSDS_OMM_VERS = 2.0
CREATION_DATE  = 
ORIGINATOR     = 

OBJECT_NAME    = 2025-313AK
OBJECT_ID      = 2025-313AK
CENTER_NAME    = EARTH
REF_FRAME      = TEME
TIME_SYSTEM    = UTC
MEAN_ELEMENT_THEORY = SGP/SGP4

EPOCH          = 2026-01-17T05:18:40.825440
MEAN_MOTION    = 15.20690124
ECCENTRICITY   = .00128227
INCLINATION    = 97.4057
RA_OF_ASC_NODE = 94.3503
ARG_OF_PERICENTER = 163.7871
MEAN_ANOMALY   = 196.3777

EPHEMERIS_TYPE = 0
CLASSIFICATION_TYPE = U
NORAD_CAT_ID   = 67281
ELEMENT_SET_NO = 999
REV_AT_EPOCH   = 299
BSTAR          = .28300476E-3
MEAN_MOTION_DOT = .6164E-4
MEAN_MOTION_DDOT = 0

CCSDS_OMM_VERS = 2.0
CREATION_DATE  = 
ORIGINATOR     = 

OBJECT_NAME    = 2025-313AL
OBJECT_ID      = 2025-313AL
CENTER_NAME    = EARTH
REF_FRAME      = TEME
TIME_SYSTEM    = UTC
MEAN_ELEMENT_THEORY = SGP/SGP4

EPOCH          = 2026-01-17T06:46:36.388704
MEAN_MOTION    = 15.21069822
ECCENTRICITY   = .00116092
INCLINATION    = 97.4106
RA_OF_ASC_NODE = 94.4219
ARG_OF_PERICENTER = 162.4993
MEAN_ANOMALY   = 197.6645

EPHEMERIS_TYPE = 0
CLASSIFICATION_TYPE = U
NORAD_CAT_ID   = 67282
ELEMENT_SET_NO = 999
REV_AT_EPOCH   = 300
BSTAR          = .30058711E-3
MEAN_MOTION_DOT = .6622E-4
MEAN_MOTION_DDOT = 0

