2025-313Z               
1 67271U 25313Z   26017.22963133  .00005181  00000+0  24271-3 0  9995
2 67271  97.4115  94.3483 0015835 165.2572 194.9128 15.20032195  2995
2025-313AA              
1 67272U 25313AA  26017.22683208  .00012607  00000+0  57945-3 0  9993
2 67272  97.4118  94.3506 0015505 169.7986 190.3567 15.20395600  2997
2025-313AB              
1 67273U 25313AB  26017.22952479  .00003419  00000+0  16147-3 0  9993
2 67273  97.4132  94.3519 0014737 173.5772 186.5655 15.20012322  2992
2025-313AC              
1 67274U 25313AC  26017.22816390  .00007823  00000+0  36312-3 0  9994
2 67274  97.4108  94.3562 0015498 168.7574 191.4010 15.20190431  2993
2025-313AD              
1 67275U 25313AD  26017.22745418  .00007823  00000+0  36260-3 0  9999
2 67275  97.4083  94.3509 0014674 171.6247 188.5236 15.20251941  2993
2025-313AE              
1 67276U 25313AE  26017.16160058  .00007378  00000+0  34222-3 0  9995
2 67276  97.4088  94.2872 0014653 171.7964 188.3514 15.20249157  2987
2025-313AF              
1 67277U 25313AF  26017.22768868  .00007212  00000+0  33494-3 0  9993
2 67277  97.4090  94.3522 0014655 171.4104 188.7385 15.20214816  2994
2025-313AG              
1 67278U 25313AG  26017.22750203  .00007303  00000+0  33895-3 0  9994
2 67278  97.4092  94.3532 0014611 171.3133 188.8358 15.20231953  3006
GALAPAGOS-UTE-SWSU      
1 67279U 25313AH  26017.22678715  .00008370  00000+0  38698-3 0  9993
2 67279  97.4104  94.3568 0015169 168.3834 191.7754 15.20311091  2995
2025-313AJ              
1 67280U 25313AJ  26017.22247633  .00006062  00000+0  27899-3 0  9993
2 67280  97.4173  94.3680 0014107 164.9876 195.1781 15.20598298  2991
2025-313AK              
1 67281U 25313AK  26017.22130585  .00006164  00000+0  28300-3 0  9992
2 67281  97.4057  94.3503 0012822 163.7871 196.3777 15.20690124  2990
2025-313AL              
1 67282U 25313AL  26017.28236561  .00006622  00000+0  30059-3 0  9993
2 67282  97.4106  94.4219 0011609 162.4993 197.6645 15.21069822  3001
